{"type": "FeatureCollection", "features": [ {"type": "Feature", "properties": {"norad_id": 32289, "name": "YAOGAN-3", "group": "resource", "lat": -22.563090390043218, "lon": -163.01269331279835, "alt_km": 604.3043438700233, "timestamp": "2025-12-19T16:54:43.907569+00:00", "meta": {"OBJECT_NAME": "YAOGAN-3", "OBJECT_ID": "2007-055A", "EPOCH": "2025-12-19T07:56:46.209696", "MEAN_MOTION": 14.89888677, "ECCENTRICITY": 0.00012536, "INCLINATION": 97.8361, "RA_OF_ASC_NODE": 19.8975, "ARG_OF_PERICENTER": 72.2749, "MEAN_ANOMALY": 287.8605, "EPHEMERIS_TYPE": 0, "CLASSIFICATION_TYPE": "U", "NORAD_CAT_ID": 32289, "ELEMENT_SET_NO": 999, "REV_AT_EPOCH": 97907, "BSTAR": 0.00016900083, "MEAN_MOTION_DOT": 1.569e-05, "MEAN_MOTION_DDOT": 0}, "tle": {"line1": "1 32289U 07055A   25353.33109039  .00001569  00000+0  16900-3 0  9996", "line2": "2 32289  97.8361  19.8975 0001253  72.2749 287.8605 14.89888677979075"}}, "geometry": {"type": "Point", "coordinates": [-163.01269331279835, -22.563090390043218]}}, {"type": "Feature", "properties": {"norad_id": 32376, "name": "COSMO-SKYMED 2", "group": "resource", "lat": -70.10616637193382, "lon": -162.5728789432133, "alt_km": 630.6754709361921, "timestamp": "2025-12-19T16:54:43.907592+00:00", "meta": {"OBJECT_NAME": "COSMO-SKYMED 2", "OBJECT_ID": "2007-059A", "EPOCH": "2025-12-19T07:30:49.116672", "MEAN_MOTION": 14.82150209, "ECCENTRICITY": 0.00013489, "INCLINATION": 97.8803, "RA_OF_ASC_NODE": 174.5379, "ARG_OF_PERICENTER": 83.1823, "MEAN_ANOMALY": 276.9544, "EPHEMERIS_TYPE": 0, "CLASSIFICATION_TYPE": "U", "NORAD_CAT_ID": 32376, "ELEMENT_SET_NO": 999, "REV_AT_EPOCH": 97535, "BSTAR": 5.477437e-05, "MEAN_MOTION_DOT": 3.84e-06, "MEAN_MOTION_DDOT": 0}, "tle": {"line1": "1 32376U 07059A   25353.31306848  .00000384  00000+0  54774-4 0  9998", "line2": "2 32376  97.8803 174.5379 0001348  83.1823 276.9544 14.82150209975353"}}, "geometry": {"type": "Point", "coordinates": [-162.5728789432133, -70.10616637193382]}}, {"type": "Feature", "properties": {"norad_id": 32382, "name": "RADARSAT-2", "group": "resource", "lat": 11.149040342681015, "lon": -3.5109586003572155, "alt_km": 792.9029597484787, "timestamp": "2025-12-19T16:54:43.907613+00:00", "meta": {"OBJECT_NAME": "RADARSAT-2", "OBJECT_ID": "2007-061A", "EPOCH": "2025-12-19T06:47:01.760064", "MEAN_MOTION": 14.2998404, "ECCENTRICITY": 0.00011153, "INCLINATION": 98.5792, "RA_OF_ASC_NODE": 357.7781, "ARG_OF_PERICENTER": 84.3007, "MEAN_ANOMALY": 275.8302, "EPHEMERIS_TYPE": 0, "CLASSIFICATION_TYPE": "U", "NORAD_CAT_ID": 32382, "ELEMENT_SET_NO": 999, "REV_AT_EPOCH": 94024, "BSTAR": 0.00010067672, "MEAN_MOTION_DOT": 2.16e-06, "MEAN_MOTION_DDOT": 0}, "tle": {"line1": "1 32382U 07061A   25353.28265926  .00000216  00000+0  10068-3 0  9996", "line2": "2 32382  98.5792 357.7781 0001115  84.3007 275.8302 14.29984040940245"}}, "geometry": {"type": "Point", "coordinates": [-3.5109586003572155, 11.149040342681015]}}, {"type": "Feature", "properties": {"norad_id": 32783, "name": "CARTOSAT-2A", "group": "resource", "lat": -12.324427553123297, "lon": 45.0256057578248, "alt_km": 629.2076360673918, "timestamp": "2025-12-19T16:54:43.907632+00:00", "meta": {"OBJECT_NAME": "CARTOSAT-2A", "OBJECT_ID": "2008-021A", "EPOCH": "2025-12-19T07:13:32.202624", "MEAN_MOTION": 14.78948374, "ECCENTRICITY": 0.00113446, "INCLINATION": 97.7926, "RA_OF_ASC_NODE": 42.9201, "ARG_OF_PERICENTER": 343.1432, "MEAN_ANOMALY": 16.9401, "EPHEMERIS_TYPE": 0, "CLASSIFICATION_TYPE": "U", "NORAD_CAT_ID": 32783, "ELEMENT_SET_NO": 999, "REV_AT_EPOCH": 95221, "BSTAR": 0.00010457074, "MEAN_MOTION_DOT": 7.22e-06, "MEAN_MOTION_DDOT": 0}, "tle": {"line1": "1 32783U 08021A   25353.30106716  .00000722  00000+0  10457-3 0  9996", "line2": "2 32783  97.7926  42.9201 0011344 343.1432  16.9401 14.78948374952211"}}, "geometry": {"type": "Point", "coordinates": [45.0256057578248, -12.324427553123297]}}, {"type": "Feature", "properties": {"norad_id": 33320, "name": "HUANJING 1A (HJ-1A)", "group": "resource", "lat": -35.21305392493411, "lon": -12.84174380222161, "alt_km": 615.5709400355663, "timestamp": "2025-12-19T16:54:43.907644+00:00", "meta": {"OBJECT_NAME": "HUANJING 1A (HJ-1A)", "OBJECT_ID": "2008-041A", "EPOCH": "2025-12-19T07:21:30.368736", "MEAN_MOTION": 14.83413315, "ECCENTRICITY": 0.00197251, "INCLINATION": 97.6534, "RA_OF_ASC_NODE": 341.3311, "ARG_OF_PERICENTER": 13.5553, "MEAN_ANOMALY": 346.6187, "EPHEMERIS_TYPE": 0, "CLASSIFICATION_TYPE": "U", "NORAD_CAT_ID": 33320, "ELEMENT_SET_NO": 999, "REV_AT_EPOCH": 93173, "BSTAR": 0.00011708039, "MEAN_MOTION_DOT": 9.13e-06, "MEAN_MOTION_DDOT": 0}, "tle": {"line1": "1 33320U 08041A   25353.30660149  .00000913  00000+0  11708-3 0  9993", "line2": "2 33320  97.6534 341.3311 0019725  13.5553 346.6187 14.83413315931730"}}, "geometry": {"type": "Point", "coordinates": [-12.84174380222161, -35.21305392493411]}}, {"type": "Feature", "properties": {"norad_id": 33321, "name": "HUANJING 1B (HJ-1B)", "group": "resource", "lat": 8.040658718056008, "lon": 166.47774553365198, "alt_km": 634.7821456713255, "timestamp": "2025-12-19T16:54:43.907655+00:00", "meta": {"OBJECT_NAME": "HUANJING 1B (HJ-1B)", "OBJECT_ID": "2008-041B", "EPOCH": "2025-12-19T06:25:34.560768", "MEAN_MOTION": 14.82837298, "ECCENTRICITY": 0.00380187, "INCLINATION": 97.6394, "RA_OF_ASC_NODE": 344.9738, "ARG_OF_PERICENTER": 55.0491, "MEAN_ANOMALY": 305.4284, "EPHEMERIS_TYPE": 0, "CLASSIFICATION_TYPE": "U", "NORAD_CAT_ID": 33321, "ELEMENT_SET_NO": 999, "REV_AT_EPOCH": 93174, "BSTAR": 0.00012850277, "MEAN_MOTION_DOT": 1.001e-05, "MEAN_MOTION_DDOT": 0}, "tle": {"line1": "1 33321U 08041B   25353.26776112  .00001001  00000+0  12850-3 0  9995", "line2": "2 33321  97.6394 344.9738 0038018  55.0491 305.4284 14.82837298931746"}}, "geometry": {"type": "Point", "coordinates": [166.47774553365198, 8.040658718056008]}}, {"type": "Feature", "properties": {"norad_id": 33331, "name": "GEOEYE 1", "group": "resource", "lat": 63.69934313255115, "lon": 48.09745517790038, "alt_km": 673.7330201424866, "timestamp": "2025-12-19T16:54:43.907666+00:00", "meta": {"OBJECT_NAME": "GEOEYE 1", "OBJECT_ID": "2008-042A", "EPOCH": "2025-12-19T05:08:24.472896", "MEAN_MOTION": 14.64708636, "ECCENTRICITY": 0.00027954, "INCLINATION": 98.1246, "RA_OF_ASC_NODE": 64.4134, "ARG_OF_PERICENTER": 256.8072, "MEAN_ANOMALY": 103.282, "EPHEMERIS_TYPE": 0, "CLASSIFICATION_TYPE": "U", "NORAD_CAT_ID": 33331, "ELEMENT_SET_NO": 999, "REV_AT_EPOCH": 92380, "BSTAR": 8.9041847e-05, "MEAN_MOTION_DOT": 4.26e-06, "MEAN_MOTION_DDOT": 0}, "tle": {"line1": "1 33331U 08042A   25353.21417214  .00000426  00000+0  89042-4 0  9995", "line2": "2 33331  98.1246  64.4134 0002795 256.8072 103.2820 14.64708636923803"}}, "geometry": {"type": "Point", "coordinates": [48.09745517790038, 63.69934313255115]}}, {"type": "Feature", "properties": {"norad_id": 33396, "name": "THEOS", "group": "resource", "lat": -62.87384982220924, "lon": -145.56368956024636, "alt_km": 832.901793813141, "timestamp": "2025-12-19T16:54:43.907677+00:00", "meta": {"OBJECT_NAME": "THEOS", "OBJECT_ID": "2008-049A", "EPOCH": "2025-12-19T07:18:40.609152", "MEAN_MOTION": 14.20097154, "ECCENTRICITY": 0.00011552, "INCLINATION": 98.5864, "RA_OF_ASC_NODE": 51.201, "ARG_OF_PERICENTER": 95.9625, "MEAN_ANOMALY": 264.1683, "EPHEMERIS_TYPE": 0, "CLASSIFICATION_TYPE": "U", "NORAD_CAT_ID": 33396, "ELEMENT_SET_NO": 999, "REV_AT_EPOCH": 89243, "BSTAR": 6.91281e-06, "MEAN_MOTION_DOT": -2.8e-07, "MEAN_MOTION_DDOT": 0}, "tle": {"line1": "1 33396U 08049A   25353.30463668 -.00000028  00000+0  69128-5 0  9990", "line2": "2 33396  98.5864  51.2010 0001155  95.9625 264.1683 14.20097154892432"}}, "geometry": {"type": "Point", "coordinates": [-145.56368956024636, -62.87384982220924]}}, {"type": "Feature", "properties": {"norad_id": 33412, "name": "COSMO-SKYMED 3", "group": "resource", "lat": -52.614984919333345, "lon": -145.38881436833563, "alt_km": 568.014899483026, "timestamp": "2025-12-19T16:54:43.907689+00:00", "meta": {"OBJECT_NAME": "COSMO-SKYMED 3", "OBJECT_ID": "2008-054A", "EPOCH": "2025-12-19T07:34:40.789632", "MEAN_MOTION": 15.05411755, "ECCENTRICITY": 0.00167476, "INCLINATION": 97.847, "RA_OF_ASC_NODE": 203.818, "ARG_OF_PERICENTER": 149.8179, "MEAN_ANOMALY": 210.4015, "EPHEMERIS_TYPE": 0, "CLASSIFICATION_TYPE": "U", "NORAD_CAT_ID": 33412, "ELEMENT_SET_NO": 999, "REV_AT_EPOCH": 92986, "BSTAR": 0.00012891721, "MEAN_MOTION_DOT": 1.789e-05, "MEAN_MOTION_DDOT": 0}, "tle": {"line1": "1 33412U 08054A   25353.31574988  .00001789  00000+0  12892-3 0  9992", "line2": "2 33412  97.8470 203.8180 0016747 149.8179 210.4015 15.05411755929867"}}, "geometry": {"type": "Point", "coordinates": [-145.38881436833563, -52.614984919333345]}}, {"type": "Feature", "properties": {"norad_id": 33446, "name": "YAOGAN-4", "group": "resource", "lat": 77.11638585776242, "lon": -113.74906441561085, "alt_km": 620.7046499870885, "timestamp": "2025-12-19T16:54:43.907699+00:00", "meta": {"OBJECT_NAME": "YAOGAN-4", "OBJECT_ID": "2008-061A", "EPOCH": "2025-12-19T05:12:57.035520", "MEAN_MOTION": 14.8270017, "ECCENTRICITY": 0.00131785, "INCLINATION": 97.919, "RA_OF_ASC_NODE": 283.2531, "ARG_OF_PERICENTER": 300.5796, "MEAN_ANOMALY": 59.4117, "EPHEMERIS_TYPE": 0, "CLASSIFICATION_TYPE": "U", "NORAD_CAT_ID": 33446, "ELEMENT_SET_NO": 999, "REV_AT_EPOCH": 91899, "BSTAR": 0.00012404803, "MEAN_MOTION_DOT": 9.48e-06, "MEAN_MOTION_DDOT": 0}, "tle": {"line1": "1 33446U 08061A   25353.21732680  .00000948  00000+0  12405-3 0  9997", "line2": "2 33446  97.9190 283.2531 0013178 300.5796  59.4117 14.82700170918994"}}, "geometry": {"type": "Point", "coordinates": [-113.74906441561085, 77.11638585776242]}}]}